[{"OBJECT_NAME":"STARLINK-35834","OBJECT_ID":"2025-268P","EPOCH":"2026-03-09T03:50:22.087104","MEAN_MOTION":15.27613968,"ECCENTRICITY":2.792e-5,"INCLINATION":42.9969,"RA_OF_ASC_NODE":350.5009,"ARG_OF_PERICENTER":237.3828,"MEAN_ANOMALY":122.6996,"EPHEMERIS_TYPE":0,"CLASSIFICATION_TYPE":"U","NORAD_CAT_ID":66570,"ELEMENT_SET_NO":999,"REV_AT_EPOCH":1787,"BSTAR":0.0011225519,"MEAN_MOTION_DOT":0.00030789,"MEAN_MOTION_DDOT":0},{"OBJECT_NAME":"CZ-6A DEB","OBJECT_ID":"2022-151ADD","EPOCH":"2026-03-09T18:20:47.462208","MEAN_MOTION":15.20298953,"ECCENTRICITY":0.00285544,"INCLINATION":98.6309,"RA_OF_ASC_NODE":152.6578,"ARG_OF_PERICENTER":173.2603,"MEAN_ANOMALY":186.9019,"EPHEMERIS_TYPE":0,"CLASSIFICATION_TYPE":"U","NORAD_CAT_ID":56285,"ELEMENT_SET_NO":999,"REV_AT_EPOCH":17182,"BSTAR":0.0066325049,"MEAN_MOTION_DOT":0.00148374,"MEAN_MOTION_DDOT":0}]
